#dP2019  9 11  0  0  0.00000000      96 __u+U ITR00 FIT  IAC
## 2070 259200.00000000   900.00000000 58737 0.0000000000000
+  117   C01C02C03C04C05C06C07C08C09C10C11C12C13C14C16C19C20
+        C21C22C23C24C25C26C27C28C29C30C32C33C34C35C36C37E01
+        E02E03E04E05E07E08E09E11E12E13E14E15E18E19E21E24E25
+        E26E27E30E31E33E36G01G02G03G04G05G06G07G08G09G10G11
+        G12G13G14G15G16G17G18G19G20G21G22G23G24G25G26G27G28
+        G29G30G31G32J01J02J03J07R01R02R03R05R06R07R08R09R11
+        R12R13R14R15R16R17R18R19R20R21R22R23R24R26R27  0  0
++        13 13 13 13 12  8  9  8  8  8  8  8  8  7  9  8  7
++         8  8  8  8  8  8  8  8  9  8  8  8  8  9 10  9  5
++         4  5  5  5  5  4  5  5  5  5  5  5  5  5  5  5  5
++         5  5  4  5  5  5  3  3  3  4  3  3  3  3  4  3  3
++         3  3  3  3  3  3  3  3  3  3  3  3  3  3  3  3  3
++         3  3  3  3  8  9  9 13  6  5  5  5 11  5  5  6  5
++         5  6  5  5  6  5  5  6  6  5  6  5  6  8  8  0  0
%c M  cc GPS ccc cccc cccc cccc cccc ccccc ccccc ccccc ccccc
%c cc cc ccc ccc cccc cccc cccc cccc ccccc ccccc ccccc ccccc
%f  0.0000000  0.000000000  0.00000000000  0.000000000000000
%f  0.0000000  0.000000000  0.00000000000  0.000000000000000
%i    0    0    0    0      0      0      0      0         0
%i    0    0    0    0      0      0      0      0         0
/* INFORMATION & ANALYSIS CENTER (IAC)            RAPID DATA
/* S/V CLOCKS ARE ALIGNED TO GNSS TIME                      
/* G:C1WC2W R:C1PC2P E:C1XC5X E:C2IC6I J:C1CC2S             
/* PCV:IGS14_2062 OL/AL:FES2004  NONE     YN ORB:CoN CLK:CoN
*  2019 09 11 23 45  0.00000000
PC01 -32266.728804  27098.003196    841.867803   -122.098639
PC02   4306.697614  41960.940160   -214.879876 999999.999999
PC03 -14805.775879  39453.470500    536.807604     25.144334
PC04 -39614.192490  14379.868902    688.156528   -359.112013
PC05  21801.569362  36075.681946   -428.119519     16.174361
PC06 -13786.848375  20911.649502 -33599.806960    418.643787
PC07 -22269.943074  33986.403548  10406.506061   -124.417662
PC08  -7470.154254  33944.842366  24164.402596     -3.504760
PC09   2183.354474  25980.707199 -32842.566863    -39.991235
PC10 -10964.276900  34728.982740  21064.335690   -167.682167
PC11 -13550.337008 -21373.931935 -11631.499648    118.151738
PC12  12810.150150  -9113.429099 -23003.414625   -244.289302
PC13   1610.402477  40584.734385  11878.482269   -901.994276
PC14   6295.504078 -17858.846115  20545.548661    506.252787
PC16  -9359.006654  22297.459424 -34523.539449   -877.776833
PC19  15049.407754  10011.510597 -21244.314202    195.677330
PC20  -4547.993512  17578.797384 -21168.801630    -55.165126
PC21  22043.470370 -14876.465543   8510.519864    316.629595
PC22  26224.385962  -3445.917591  -8946.497120    -91.298920
PC23 -16337.685887    531.493399 -22602.085760   -942.209795
PC24   3014.620831 -27622.183430  -2490.445189   -904.858916
PC25 -10097.590767 -18767.135128 -18006.456827   -345.379851
PC26  12879.897557 -20545.367879  13790.108650    383.606323
PC27 -13249.414845   9375.173669  22685.535776    187.573072
PC28 -23213.903070  -7231.688139  13682.604784    182.146394
PC29  20350.952580  18817.255843   3255.960373    117.184175
PC30   5018.909523  20263.469646  18510.631529    190.897373
PC32 -21918.025048  15024.754393  -8494.549318   -924.334143
PC33 -15016.302053 -10037.416353  21270.141322   -378.341308
PC34  -5226.541710 -20405.314501 -18317.946975    -69.402867
PC35  23477.056821   6484.316303 -13597.839888   -329.237119
PC36   9593.689690  19115.369625  17951.288198   -824.046497
PC37 -13525.748856  19869.036883 -14152.712947 999999.999999
PE01  16895.711505 -24255.365365   1637.015406   -688.049289
PE02 -16846.936685  24290.141336  -1548.045712     78.635373
PE03 -17010.609163  13479.863372 -20119.330100   -209.816384
PE04  -4874.422782 -17062.348019  23696.372551   -363.559688
PE05 -29155.452401   1954.301797  -4707.097778   -449.425795
PE07  24185.803406  10635.873636 -13352.271286   -264.246081
PE08   5197.612906  16867.465727 -23761.786020   6293.325694
PE09 -24274.479064 -10359.830617  13389.137959   6319.223465
PE11 -18774.917216 -20205.926575  10742.804397   5594.594390
PE12  -8021.272281 -27199.663181  -8504.139740   6202.868155
PE13  18807.079060  20224.866231 -10655.655385    392.735607
PE14   7865.423592  17108.769148  14948.598754   -716.427353
PE15   8425.666944  27168.835517   8200.698994    895.785202
PE18  -2189.090261 -22198.985702 -23200.583645   -810.739689
PE19  18898.361580 -12505.032332  19047.951803     -4.013001
PE21  20866.463767  -9738.246263  18610.568208   -554.357131
PE24 -12698.364134 -10497.676638 -24593.089496   5875.923293
PE25 -20844.206813   9658.367839 -18647.741804   1681.506015
PE26  18278.684107   1338.343266 -23247.822052   4117.922279
PE27  12601.318556  10572.555542  24619.466458    389.231419
PE30  -3078.657635  24583.017138  16198.954827   4554.347688
PE31   3055.355169 -24621.398216 -16138.179233   -468.317376
PE33   6917.736044 -18201.773442 -22291.804558   -470.054693
PE36 -18184.035683  -1397.529231  23312.551175    663.260708
PG01 -13990.112962   5455.051733  21678.364037   -125.796381
PG02  14287.088978  16490.361939 -14619.155335   -303.052495
PG03 -22521.014058  12377.412750   6471.521973    -10.044028
PG04 -20619.343580 -13473.078589 -10926.453261     88.132922
PG05  16733.614031   4738.658223 -20263.668932     -1.341802
PG06   6133.073934  25649.577836  -2985.660473    -54.431650
PG07  -7464.003823  20501.933981 -14526.167434   -104.418037
PG08 -25341.774401  -4025.688611   7294.153295     -6.130874
PG09 -11969.795623  11378.209371 -20846.696543    -28.947169
PG10   4990.554152 -19498.611593  17281.825217    -50.015737
PG11 -16847.869662   2680.244465  19776.609908   -509.710567
PG12  23114.461299  -8217.696236   9755.176998    204.935642
PG13  23117.180586  13123.344023   -942.808439    -44.844912
PG14 -14734.849488 -17695.086941  13724.237276    -61.824576
PG15  25599.482345   1353.770107   7394.143959   -287.640153
PG16 -15090.242043  -6804.290494 -21057.566001    -73.271649
PG17   6330.423269  17180.408294  19684.057554    123.810183
PG18 -15703.551542  -4030.321151  20552.666077     84.992748
PG19  12733.787201  17615.633009  14940.434161   -268.521081
PG20  12118.289925 -21841.442988   8661.904205    526.833257
PG21   2380.936361 -24028.936007 -10474.315127   -120.447235
PG22 -21956.574370   6907.792615  13394.033019   -753.882675
PG23 -22158.674561   2993.754067 -14283.433072   -167.379077
PG24  15350.824778  -3001.084860  21304.988949     -2.037075
PG25  19194.342808 -17957.099662  -2900.136309    -11.786812
PG26  -6669.911065 -14351.877630 -21325.170020     36.800266
PG27 -23053.536665 -12536.845997  -5156.264693    -52.669239
PG28  -6235.289353  18863.936252  18285.181075    762.448548
PG29  14758.760741  -8165.854939 -20558.439103    100.339633
PG30   -537.075408  25999.293314  -4831.995989    -38.783668
PG31  -6794.910255 -24915.307348  -5084.988941     11.011146
PG32  -6974.008825 -17085.758371  19209.181630     53.502400
PJ01 -34346.902987  21171.895804  -7630.546703   -348.690351
PJ02 -23679.847286  31788.025015  -9838.740915     -3.847840
PJ03 -27855.958379  21812.508119  27976.855758     -1.805448
PJ07 -25391.687349  33657.087508    -48.680138     -0.065927
PR01   9396.256016   8946.731009 -21965.225636     49.581753
PR02  24241.831054   -554.781917  -7794.354927    387.633524
PR03  21915.609510  -8676.183893   9731.492538      1.377582
PR05 -11786.459854  -7966.868297  21185.398862     35.531861
PR06 -24512.954101   1489.613844   6932.204626    161.720342
PR07 -21712.945716   8797.100259 -10105.572698    -26.493441
PR08  -7212.033533  11673.815325 -21455.353805     15.711226
PR09 -12525.583575   3151.257713 -21964.642639     90.136701
PR11  -6368.383367  24249.551316   4570.074546    -79.061010
PR12   3253.712809  17096.029569  18690.777865     60.805110
PR13  11633.190189   -764.532099  22679.633075    -28.270426
PR14  13057.528244 -17471.288383  13261.725794     42.893147
PR15   6960.423686 -24268.463788  -3632.113510    103.924653
PR16  -3853.265694 -16807.073369 -18764.390212      4.567162
PR17  10393.234800  -3965.338973 -22954.309311    259.462784
PR18  -2807.124978 -16775.069388 -19019.966496      7.126153
PR19 -13803.722897 -20850.608198  -5013.010544    -53.271721
PR20 -17635.034816 -12133.123317  13903.596184   -390.172726
PR21  -9790.018012   4625.931853  23089.147149    -71.833828
PR22   4921.299978  18088.979142  17238.319164   -175.025070
PR23  16590.448372  19363.254887   -863.960640    253.269042
PR24  17516.528185  10170.964495 -15530.283650   -184.630243
PR26 -18173.941273 -14048.741981  11062.855801     -5.628543
PR27   9413.259789 -23619.395882   1278.068836    121.422162
EOF
